STARLINK-3107
1 49171U 21082AT  26090.82836345  .00025444  00000+0  14979-2 0  9991
2 49171  69.9929 231.0144 0006312 233.5669 126.4915 15.11541920250643
